     2.100          NAVIGATION                              RINEX VERSION / TYPE
fic2rin                                 11/30/2017 00:12:34 PGM / RUN BY / DATE
                                                            END OF HEADER
17 17 11 29  4  0  0.0 -.141484662890D-03  .238742359215D-11  .000000000000D+00
     .460000000000D+02  .596875000000D+01  .397623705481D-08  .681480937731D+00
     .385567545891D-06  .121936151991D-01  .110622495413D-04  .515372631264D+04
     .273600000000D+06 -.121071934700D-06 -.494762509279D+00  .335276126862D-07
     .981735762447D+00  .181093750000D+03 -.182658816445D+01 -.801604818630D-08
     .153577825704D-09  .100000000000D+01  .197700000000D+04  .000000000000D+00
     .240000000000D+01  .000000000000D+00 -.111758708954D-07  .460000000000D+02
     .266406000000D+06  .400000000000D+01
18 17 11 29  4  0  0.0  .633124727756D-03  .341060513165D-12  .000000000000D+00
     .570000000000D+02 -.638125000000D+02  .520307387177D-08  .220805635969D+01
    -.347383320332D-05  .181982947979D-01  .736862421036D-05  .515364190483D+04
     .273600000000D+06  .208616256714D-06  .149903553415D+01 -.245869159698D-06
     .925751539187D+00  .215375000000D+03 -.177032514851D+01 -.819498421113D-08
    -.264296723305D-09  .100000000000D+01  .197700000000D+04  .000000000000D+00
     .240000000000D+01  .000000000000D+00 -.111758708954D-07  .570000000000D+02
     .266406000000D+06  .400000000000D+01
19 17 11 29  4  0  0.0 -.472938641906D-03  .216004991671D-11  .000000000000D+00
     .104000000000D+03  .123437500000D+02  .399552357245D-08 -.261445689952D+01
     .638887286186D-06  .980518327560D-02  .104997307062D-04  .515369354248D+04
     .273600000000D+06  .247731804848D-06 -.447386179384D+00 -.540167093277D-07
     .979140937836D+00  .183750000000D+03  .109709053955D+01 -.771746432051D-08
     .310370071016D-09  .100000000000D+01  .197700000000D+04  .000000000000D+00
     .240000000000D+01  .000000000000D+00 -.153668224812D-07  .104000000000D+03
     .266406000000D+06  .400000000000D+01
20 17 11 29  4  0  0.0  .494115520269D-03  .102318153949D-11  .000000000000D+00
     .460000000000D+02 -.664687500000D+02  .534700843865D-08 -.358502967830D+00
    -.332295894623D-05  .465266546234D-02  .725500285625D-05  .515375677490D+04
     .273600000000D+06 -.163912773132D-06  .144793213664D+01  .149011611938D-07
     .927159640263D+00  .223218750000D+03  .172946230483D+01 -.853142679674D-08
    -.223223583873D-09  .100000000000D+01  .197700000000D+04  .000000000000D+00
     .240000000000D+01  .000000000000D+00 -.838190317154D-08  .460000000000D+02
     .266406000000D+06  .400000000000D+01
21 17 11 29  4  0  0.0 -.457691028714D-03  .363797880709D-11  .000000000000D+00
     .540000000000D+02  .756250000000D+01  .505378193887D-08  .312487458085D+01
     .318512320518D-06  .241297838511D-01  .464916229248D-05  .515356069565D+04
     .273600000000D+06  .415369868279D-06  .459402685040D+00 -.465661287308D-07
     .941878468676D+00  .275187500000D+03 -.162149203537D+01 -.809569436102D-08
     .197508227010D-09  .100000000000D+01  .197700000000D+04  .000000000000D+00
     .240000000000D+01  .000000000000D+00 -.977888703346D-08  .540000000000D+02
     .266406000000D+06  .400000000000D+01
22 17 11 29  4  0  0.0 -.204971060157D-03 -.128466126625D-10  .000000000000D+00
     .570000000000D+02 -.613125000000D+02  .545415575891D-08  .487941696159D-01
    -.307522714138D-05  .713879067916D-02  .828877091408D-05  .515365972328D+04
     .273600000000D+06 -.143423676491D-06  .149854885934D+01  .391155481339D-07
     .923863071405D+00  .201687500000D+03 -.165256678676D+01 -.865607484598D-08
    -.348943106310D-09  .100000000000D+01  .197700000000D+04  .000000000000D+00
     .240000000000D+01  .000000000000D+00 -.176951289177D-07  .570000000000D+02
     .266406000000D+06  .400000000000D+01
23 17 11 29  4  0  0.0 -.218842178583D-03 -.113686837722D-12  .000000000000D+00
     .640000000000D+02  .566875000000D+02  .477841332581D-08 -.662525282049D+00
     .309944152832D-05  .118617615663D-01  .111646950245D-04  .515364487457D+04
     .273600000000D+06  .132247805595D-06  .258658401352D+01  .245869159698D-06
     .944076977076D+00  .155250000000D+03 -.241311179186D+01 -.829998858498D-08
     .174650132022D-09  .100000000000D+01  .197700000000D+04  .000000000000D+00
     .240000000000D+01  .000000000000D+00 -.204890966415D-07  .640000000000D+02
     .266406000000D+06  .400000000000D+01
24 17 11 29  4  0  0.0 -.427998602390D-04 -.454747350886D-12  .000000000000D+00
     .760000000000D+02  .579375000000D+02  .522271754715D-08 -.119879153649D+01
     .295042991638D-05  .636545906309D-02  .415556132793D-05  .515366317940D+04
     .273600000000D+06  .109896063805D-06 -.267547618837D+01 -.614672899246D-07
     .943706178545D+00  .288531250000D+03  .482724389008D+00 -.853892710916D-08
     .223580741607D-09  .100000000000D+01  .197700000000D+04  .000000000000D+00
     .240000000000D+01  .000000000000D+00  .279396772385D-08  .760000000000D+02
     .266406000000D+06  .400000000000D+01
25 17 11 29  4  0  0.0 -.497315078974D-03 -.625277607469D-11  .000000000000D+00
     .560000000000D+02 -.495000000000D+02  .423839083170D-08  .311437707570D+01
    -.264681875706D-05  .673451262992D-02  .707618892193D-05  .515372255325D+04
     .273600000000D+06 -.614672899246D-07 -.158753845430D+01 -.121071934700D-06
     .975605557842D+00  .250500000000D+03  .804913720253D+00 -.794354516626D-08
    -.293940815243D-09  .100000000000D+01  .197700000000D+04  .000000000000D+00
     .240000000000D+01  .000000000000D+00  .558793544769D-08  .560000000000D+02
     .266406000000D+06  .400000000000D+01
26 17 11 29  4  0  0.0 -.344743020833D-03  .144382283906D-10  .000000000000D+00
     .106000000000D+03 -.433437500000D+02  .478912805784D-08  .264295843945D+01
    -.219233334064D-05  .230059155729D-02  .677071511745D-05  .515357037544D+04
     .273600000000D+06 -.763684511185D-07 -.160627567290D+01  .745058059692D-07
     .957262621991D+00  .247218750000D+03 -.862220216647D-01 -.824927218673D-08
    -.282511767749D-09  .100000000000D+01  .197700000000D+04  .000000000000D+00
     .240000000000D+01  .000000000000D+00  .745058059692D-08  .106000000000D+03
     .266406000000D+06  .400000000000D+01
27 17 11 29  4  0  0.0  .351864844561D-03  .318323145621D-11  .000000000000D+00
     .100000000000D+03  .862500000000D+01  .410267089271D-08  .761984365810D+00
     .543892383575D-06  .510320102330D-02  .999309122562D-05  .515368074417D+04
     .273600000000D+06  .279396772385D-07 -.547779952228D+00  .102445483208D-06
     .976531738592D+00  .192812500000D+03  .366389232965D+00 -.791318675885D-08
     .118219210019D-09  .100000000000D+01  .197700000000D+04  .000000000000D+00
     .240000000000D+01  .000000000000D+00  .186264514923D-08  .100000000000D+03
     .266406000000D+06  .400000000000D+01
28 17 11 29  4  0  0.0  .666586682200D-03  .341060513165D-11  .000000000000D+00
     .167000000000D+03 -.658437500000D+02  .397873715894D-08  .160863336581D+01
    -.375136733055D-05  .200142762624D-01  .793859362602D-05  .515366774750D+04
     .273600000000D+06  .137835741043D-06 -.150666852720D+01 -.517815351486D-06
     .987119084466D+00  .241125000000D+03 -.154801373886D+01 -.785997025645D-08
    -.356443418728D-09  .100000000000D+01  .197700000000D+04  .000000000000D+00
     .485000000000D+01  .000000000000D+00 -.111758708954D-07  .167000000000D+03
     .266406000000D+06  .400000000000D+01
29 17 11 29  4  0  0.0  .532109756023D-03 -.500222085975D-11  .000000000000D+00
     .530000000000D+02  .459375000000D+01  .382873091058D-08  .195287471248D+01
     .154599547386D-06  .428338418715D-03  .978261232376D-05  .515377639771D+04
     .273600000000D+06 -.502914190292D-07 -.484408697795D+00 -.316649675369D-07
     .982938256238D+00  .201843750000D+03  .955683640380D+00 -.771532137410D-08
     .168221292806D-09  .100000000000D+01  .197700000000D+04  .000000000000D+00
     .240000000000D+01  .000000000000D+00 -.102445483208D-07  .530000000000D+02
     .266406000000D+06  .400000000000D+01
30 17 11 29  4  0  0.0  .124610494822D-03 -.272848410532D-11  .000000000000D+00
     .410000000000D+02  .512187500000D+02  .524021827612D-08 -.209294794238D+01
     .251643359661D-05  .301033805590D-02  .415928661823D-05  .515359625435D+04
     .273600000000D+06 -.260770320892D-07 -.258262938753D+01 -.428408384323D-07
     .946276518295D+00  .295250000000D+03 -.306780540488D+01 -.857892877539D-08
     .163221084528D-09  .100000000000D+01  .197700000000D+04  .000000000000D+00
     .240000000000D+01  .000000000000D+00  .372529029846D-08  .410000000000D+02
     .266406000000D+06  .400000000000D+01
31 17 11 29  4  0  0.0  .158977694809D-03 -.250111042988D-11  .000000000000D+00
     .101000000000D+03  .475000000000D+02  .477198448659D-08 -.235980599752D+01
     .249221920967D-05  .876669178251D-02  .468455255032D-05  .515356330109D+04
     .273600000000D+06 -.195577740669D-06 -.260709377535D+01 -.689178705215D-07
     .965321878651D+00  .296000000000D+03 -.211347116599D+00 -.826963017758D-08
     .130005415247D-09  .100000000000D+01  .197700000000D+04  .000000000000D+00
     .340000000000D+01  .000000000000D+00 -.135041773319D-07  .101000000000D+03
     .266406000000D+06  .400000000000D+01
32 17 11 29  4  0  0.0 -.526801683009D-03 -.250111042988D-11  .000000000000D+00
     .510000000000D+02  .515625000000D+02  .444447084434D-08  .143777306004D+01
     .257045030594D-05  .149568659253D-02  .106412917376D-04  .515361394501D+04
     .273600000000D+06 -.577419996262D-07  .259060533686D+01  .167638063431D-07
     .957675513063D+00  .170031250000D+03 -.265273269253D+01 -.797568936233D-08
     .111076055335D-09  .100000000000D+01  .197700000000D+04  .000000000000D+00
     .240000000000D+01  .000000000000D+00  .465661287308D-09  .510000000000D+02
     .266406000000D+06  .400000000000D+01
